OBJECT_NAME,OBJECT_ID,EPOCH,MEAN_MOTION,ECCENTRICITY,INCLINATION,RA_OF_ASC_NODE,ARG_OF_PERICENTER,MEAN_ANOMALY,EPHEMERIS_TYPE,CLASSIFICATION_TYPE,NORAD_CAT_ID,ELEMENT_SET_NO,REV_AT_EPOCH,BSTAR,MEAN_MOTION_DOT,MEAN_MOTION_DDOT
NUSANTARA TIGA (SATRIA),2023-086A,2026-07-22T03:27:33.306336,1.00272809,.00026676,0.0352,14.2999,323.9178,159.5671,0,U,57045,999,1011,0,-.231E-5,0
H2SAT (HEINRICH HERTZ),2023-093A,2026-07-22T07:54:14.518944,1.00272215,.00007813,0.0246,107.8460,228.3551,83.1421,0,U,57213,999,1126,0,.5E-7,0
SYRACUSE 4B,2023-093B,2026-07-22T10:12:38.663136,1.00270282,.00001994,0.0244,61.0499,98.5837,287.2438,0,U,57214,999,731,0,0,0
JUPITER 3 (ECHOSTAR 24),2023-108A,2026-07-21T10:23:59.748288,1.00271712,.00011522,0.0148,54.1335,65.1356,240.7287,0,U,57479,999,1098,0,-.149E-5,0
GALAXY 37 (G-37),2023-112A,2026-07-22T12:06:38.635776,1.00273228,.00021229,0.0164,64.1564,54.0556,236.6985,0,U,57493,999,1089,0,.51E-6,0
LUDI TANCE-4 01A,2023-120A,2026-07-22T14:27:27.447264,1.00275057,.00017051,15.0824,193.0909,10.1521,43.5828,0,U,57624,999,1090,0,-.168E-5,0
TJS-10,2023-169A,2026-07-22T11:45:44.360064,1.00272313,.0004128,2.6328,80.0686,111.4129,17.6036,0,U,58204,999,989,0,-.248E-5,0
ZHONGXING-6E,2023-172A,2026-07-22T10:09:39.910176,1.00268518,.00030257,0.0519,246.9525,225.9502,95.1661,0,U,58253,999,1001,0,-.358E-5,0
YAOGAN-41,2023-197A,2026-07-22T15:19:46.925184,1.00274083,.00141132,3.0652,313.7052,200.2106,139.5806,0,U,58582,999,967,0,-.354E-5,0
OVZON-3,2024-003A,2026-07-22T11:36:18.510048,1.00267718,.00004696,0.0268,167.7906,256.8779,109.3152,0,U,58698,999,780,0,.56E-6,0
INSAT-3DS,2024-033A,2026-07-22T10:00:02.573280,1.00270650,.00013782,0.0729,263.0036,220.4797,48.7333,0,U,58990,999,4742,0,-.152E-5,0
MERAH PUTIH 2,2024-035A,2026-07-22T12:48:38.791584,1.00271340,.00012503,0.0178,75.5270,37.9897,131.8701,0,U,58995,999,894,0,-.354E-5,0
TJS-11,2024-037A,2026-07-22T16:59:25.704960,1.00271151,.0002111,4.1533,327.5299,157.9968,182.3596,0,U,59020,999,893,0,-.355E-5,0
HULIANWAN GAOGUI-01 (HG-01),2024-040A,2026-07-22T11:28:56.715744,1.00270426,.00016565,0.0759,333.5028,72.9094,99.6733,0,U,59069,999,768,0,.159E-5,0
EUTELSAT 36D,2024-059A,2026-07-22T11:29:34.156320,1.00269699,.00001678,0.0255,62.1312,34.1123,52.2276,0,U,59346,999,850,0,0,0
PAKSAT-MM1,2024-104A,2026-07-22T11:30:04.107744,1.00275977,.00022176,0.0341,187.9789,273.0874,49.9128,0,U,59915,999,788,0,.157E-5,0
ASTRA 1P (SES-24),2024-115A,2026-07-22T07:59:29.015808,1.00257902,.00006316,0.0691,325.3980,175.1007,298.6491,0,U,60086,999,755,0,.121E-5,0
GOES 19,2024-119A,2026-07-22T10:57:52.195104,1.00272219,.00003557,0.0200,128.6948,48.7723,212.0096,0,U,60133,999,731,0,-.245E-5,0
ZHONGXING-3A,2024-122A,2026-07-22T18:38:53.831616,1.00271192,.0001619,0.0306,139.3053,19.7453,162.7656,0,U,60179,999,766,0,-.309E-5,0
TURKSAT 6A,2024-127A,2026-07-21T20:07:24.773088,1.00274233,.0003146,0.0444,216.7267,310.1163,116.5770,0,U,60233,999,736,0,.149E-5,0
HULIANWAN GAOGUI-02 (HG-02),2024-135A,2026-07-22T10:42:36.182304,1.00274738,.00058941,0.0479,358.6429,13.0934,242.1466,0,U,60327,999,785,0,-.17E-5,0
ZHONGXING-4A,2024-151A,2026-07-22T12:48:38.791584,1.00272136,.00000582,1.2248,270.4075,255.0404,85.2161,0,U,60606,999,710,0,-.358E-5,0
HULIANWAN GAOGUI-03 (HG-03),2024-181A,2026-07-22T21:33:17.737344,1.00275075,.0001534,0.0529,1.4631,86.3948,98.9604,0,U,61503,999,718,0,-.237E-5,0
DSN-3 (KIRAMEKI-3),2024-198A,2026-07-22T12:31:38.501760,1.00270818,.00011829,0.0332,247.5341,252.2800,132.4192,0,U,61733,999,627,0,-.247E-5,0
KOREASAT 6A,2024-206A,2026-07-22T12:48:38.791584,1.00272621,.00010675,0.0098,284.1171,162.3145,162.0289,0,U,61910,999,619,0,-.358E-5,0
OPTUS-X (ADS-01),2024-212A,2026-07-22T12:16:38.465184,1.00271935,.00024786,0.0420,261.5534,238.3783,140.8885,0,U,62006,999,611,0,-.14E-5,0
GSAT-N2 (GSAT-20),2024-214A,2026-07-22T11:38:40.782336,1.00273007,.00027313,0.0577,258.2995,154.5527,129.9851,0,U,62028,999,625,0,-.16E-6,0
SXM-9,2024-234A,2026-07-22T10:54:59.969664,1.00271073,.00046766,0.0164,343.9017,337.1662,57.7095,0,U,62259,999,592,0,-.202E-5,0
TJS-12,2024-246A,2026-07-22T19:38:38.857920,1.00267853,.0001953,0.5955,303.0089,105.4907,333.1542,0,U,62374,999,592,0,-.228E-5,0
NUVIEW ALPHA,2024-252B,2026-07-22T10:55:37.410240,1.00271972,.00009379,0.0386,12.5067,65.9570,302.5382,0,U,62455,999,417,0,-.212E-5,0
AGILA,2024-252C,2026-07-22T10:40:22.371168,1.00271124,.00015672,0.0423,216.2058,270.1241,126.1113,0,U,62456,999,551,0,-.178E-5,0
NUVIEW BRAVO,2024-252D,2026-07-22T10:55:37.410240,1.00273029,.00018454,0.0670,172.7439,334.7224,233.5385,0,U,62457,999,414,0,-.212E-5,0
THURAYA-4,2025-001A,2026-07-22T08:22:38.701920,1.00272899,.00002047,0.0200,75.8146,351.5519,42.7021,0,U,62483,999,453,0,.142E-5,0
SHIJIAN-25 (SJ-25),2025-002A,2026-07-22T13:38:20.852160,1.00275607,.0050731,5.1950,60.9361,176.6753,34.4537,0,U,62485,999,571,0,-.35E-5,0
TJS-14,2025-017A,2026-07-22T14:49:51.496896,1.00271036,.00018153,0.7047,298.3693,301.7617,301.0477,0,U,62804,999,562,0,.12E-5,0
SPAINSAT NG I,2025-021A,2026-07-22T11:27:26.858880,1.00271000,.00002852,0.0173,47.2825,25.3957,68.3849,0,U,62852,999,434,0,.155E-5,0
QZS-6 (MICHIBIKI-6),2025-023A,2026-07-22T14:12:23.541696,1.00273977,.00020586,0.0176,52.2260,62.8136,128.8871,0,U,62876,999,530,0,-.23E-5,0
ZHONGXING-10R,2025-036A,2026-07-22T14:06:31.447872,1.00269934,.0004721,0.0694,247.5174,259.2127,115.7243,0,U,63075,999,531,0,-.348E-5,0
TJS-15,2025-045A,2026-07-22T12:10:15.765024,1.00271911,.000309,0.3115,85.6557,297.6615,193.9017,0,U,63157,999,511,0,-.261E-5,0
TIANLIAN 2-04,2025-062A,2026-07-22T15:07:25.609728,1.00272755,.00312744,4.2855,273.9282,9.2249,324.1149,0,U,63361,999,495,0,-.127E-5,0
TJS-16,2025-064A,2026-07-22T12:16:26.465088,1.00271665,.0002416,1.1868,81.2424,298.6317,265.0980,0,U,63397,999,474,0,-.103E-5,0
TJS-17,2025-073A,2026-07-22T12:11:01.804992,1.00271970,.0001022,1.1528,82.3957,323.4327,241.6719,0,U,63524,999,464,0,-.67E-6,0
TIANLIAN 2-05,2025-084A,2026-07-22T08:16:38.722368,1.00274253,.00028028,4.3637,279.4325,160.6337,4.5685,0,U,63662,999,473,0,.132E-5,0
TJS-19,2025-097A,2026-07-22T12:23:19.477824,1.00274057,.0004176,3.2283,318.0264,248.7017,60.6064,0,U,63924,999,449,0,-.269E-5,0
CHINASAT 3B,2025-106A,2026-07-22T18:57:37.036800,1.00271318,.0004344,0.0330,195.3200,311.2125,245.7028,0,U,64062,999,441,0,-.41E-6,0
SXM-10,2025-122A,2026-07-22T11:40:38.727840,1.00270681,.00017283,0.0173,44.8002,325.6653,348.7482,0,U,64290,999,403,0,-.13E-6,0
COSMOS 2589,2025-131A,2026-07-22T11:47:14.216064,1.00299459,.0001317,0.0296,115.0181,302.3327,157.7754,0,U,64467,999,391,0,-.292E-5,0
CHINASAT 9C,2025-132A,2026-07-22T11:45:36.871776,1.00272748,.00036116,0.0166,103.7523,12.6639,92.4276,0,U,64470,999,450,0,-.244E-5,0
MTG-S1,2025-143A,2026-07-22T07:53:52.054944,1.00275765,.00031874,0.5807,346.7337,256.3657,175.1137,0,U,64723,999,377,0,-.3E-7,0
DROR 1,2025-148A,2026-07-22T07:52:52.150368,1.00270965,.0001898,0.0163,315.1191,94.5246,4.6396,0,U,64784,999,364,0,-.31E-6,0
SHIYAN-29,2025-196A,2026-07-22T19:55:14.491776,1.00275016,.0013286,28.8597,18.0856,176.3842,140.2620,0,U,65486,999,323,0,-.281E-5,0
NUSANTARA LIMA (NUSANTARA 5),2025-205A,2026-07-22T12:56:38.749632,1.00271675,.00004514,0.0059,101.6406,85.0434,60.6135,0,U,65588,999,307,0,-.354E-5,0
TJS-20,2025-238A,2026-07-22T09:54:25.610688,1.00269523,.00039933,5.3916,299.4127,189.1631,22.6008,0,U,66142,999,268,0,.34E-6,0
CMS-03 (GSAT-7R),2025-249B,2026-07-22T11:40:25.614912,1.00270551,.00025672,0.0249,63.9520,55.7115,69.6699,0,U,66311,999,270,0,0,0
VIASAT-3 F2,2025-261A,2026-07-22T10:56:44.802240,1.00272671,.00006655,0.0240,259.1845,318.7391,167.5033,0,U,66454,999,314,0,-.23E-5,0
SHIJIAN-28 (SJ-28),2025-277A,2026-07-22T11:51:38.719296,1.00273542,.00010628,4.4487,271.5696,58.6216,264.8017,0,U,66549,999,250,0,-.352E-5,0
TJS-22,2025-290A,2026-07-21T18:46:42.604320,1.00271272,.00029484,1.4469,287.0562,317.7066,42.9083,0,U,66990,999,237,0,-.3E-7,0
TJS-23,2025-306A,2026-07-22T12:06:48.304800,1.00269112,.0004437,5.5094,297.3022,203.1505,157.0130,0,U,67226,999,224,0,.26E-6,0
FENGYUN 4C,2025-312A,2026-07-13T15:48:28.031328,1.00269440,.00006584,0.0385,175.3203,48.7481,77.5697,0,U,67246,999,204,0,-.328E-5,0
SHIJIAN-29A (SJ-29A),2025-315A,2026-07-22T14:22:52.730688,1.00273357,.00053468,3.4855,94.2608,53.7728,81.2313,0,U,67302,999,197,0,-.67E-6,0
SHIJIAN-29B (SJ-29B),2025-315C,2026-07-22T14:22:44.328288,1.00273569,.00054212,3.4844,94.2535,55.5249,79.4954,0,U,67403,999,204,0,-.68E-6,0
ELEKTRO-L 5,2026-028A,2026-07-21T22:56:46.910400,1.00271768,.00020867,0.1994,328.9109,176.6572,214.4329,0,U,67756,999,160,0,-.95E-6,0
JAM-E JAM 1,2026-028B,2026-07-22T04:21:38.651904,1.00268137,.00007064,0.1943,316.4863,248.4856,194.3252,0,U,67757,999,147,0,.159E-5,0
ECHOSTAR 25,2026-045A,2026-07-22T07:22:40.045152,1.00272612,.00015679,0.0170,61.1347,56.2645,183.3123,0,U,68126,999,134,0,-.53E-6,0
TJS-24,2026-116A,2026-07-22T14:12:23.558112,1.00273286,.00002185,0.0951,93.7755,122.0093,27.9606,0,U,69235,999,58,0,-.228E-5,0
